MALLIGYONG-1            
1 58400U 23179A   24203.18792480  .00008838  00000+0  39510-3 0  9996
2 58400  97.3997  89.4606 0003622  86.5757 273.5894 15.21544273 36895
